{
  "norad_id": 60340,
  "name": "STARLINK-32176",
  "history": [
    {
      "epoch": "2026-03-28T21:15:40.683456Z",
      "apogee_km": 476.14262776118176,
      "perigee_km": 474.283725059332,
      "latitude_deg": -4.776189232931614e-05,
      "longitude_deg": -158.72405650523274,
      "height_km": 476.2814046897685,
      "semi_major_axis_km": 6853.350176410257,
      "eccentricity": 0.00013562,
      "inclination_deg": 53.1629,
      "raan_deg": 346.4954,
      "arg_perigee_deg": 100.5342,
      "mean_anomaly_deg": 259.5811,
      "mean_motion_rev_day": 15.30200634
    },
    {
      "epoch": "2026-03-29T03:31:54.204960Z",
      "apogee_km": 476.0422344311337,
      "perigee_km": 474.441285152845,
      "latitude_deg": -1.2006573587826368e-05,
      "longitude_deg": 105.74821345365851,
      "height_km": 476.2055044057799,
      "semi_major_axis_km": 6853.378759791989,
      "eccentricity": 0.0001168,
      "inclination_deg": 53.1615,
      "raan_deg": 345.2815,
      "arg_perigee_deg": 94.684,
      "mean_anomaly_deg": 265.4294,
      "mean_motion_rev_day": 15.30191061
    },
    {
      "epoch": "2026-03-30T03:02:41.763264Z",
      "apogee_km": 475.94396864756254,
      "perigee_km": 474.5116154060297,
      "latitude_deg": -3.446074203310813e-05,
      "longitude_deg": 107.53418445839444,
      "height_km": 476.1023258720545,
      "semi_major_axis_km": 6853.364792026796,
      "eccentricity": 0.0001045,
      "inclination_deg": 53.1627,
      "raan_deg": 340.7313,
      "arg_perigee_deg": 88.0683,
      "mean_anomaly_deg": 272.0437,
      "mean_motion_rev_day": 15.30195739
    },
    {
      "epoch": "2026-03-30T03:02:41.764128Z",
      "apogee_km": 475.94396864756254,
      "perigee_km": 474.5116154060297,
      "latitude_deg": -3.4445482262939306e-05,
      "longitude_deg": 107.53418085988817,
      "height_km": 476.10232586983955,
      "semi_major_axis_km": 6853.364792026796,
      "eccentricity": 0.0001045,
      "inclination_deg": 53.1627,
      "raan_deg": 340.7313,
      "arg_perigee_deg": 88.0683,
      "mean_anomaly_deg": 272.0437,
      "mean_motion_rev_day": 15.30195739
    },
    {
      "epoch": "2026-03-30T09:18:54.730944Z",
      "apogee_km": 475.94501142519584,
      "perigee_km": 474.52430748019106,
      "latitude_deg": -1.1571453766574476e-05,
      "longitude_deg": 12.009059022662123,
      "height_km": 476.07766868164856,
      "semi_major_axis_km": 6853.371659452693,
      "eccentricity": 0.00010365,
      "inclination_deg": 53.1624,
      "raan_deg": 339.5177,
      "arg_perigee_deg": 85.5072,
      "mean_anomaly_deg": 274.6047,
      "mean_motion_rev_day": 15.30193439
    },
    {
      "epoch": "2026-03-30T23:25:23.199744Z",
      "apogee_km": 475.9086499537216,
      "perigee_km": 474.5663480243493,
      "latitude_deg": 1.0799966682917936e-06,
      "longitude_deg": 157.07965793332755,
      "height_km": 475.90444352474594,
      "semi_major_axis_km": 6853.374498989036,
      "eccentricity": 9.793e-05,
      "inclination_deg": 53.1605,
      "raan_deg": 336.7863,
      "arg_perigee_deg": 69.8081,
      "mean_anomaly_deg": 290.3025,
      "mean_motion_rev_day": 15.30192488
    }
  ]
}